{
  "type": "FeatureCollection",
  "features": [
    {
      "type": "Feature",
      "properties": {
        "norad_id": 33791,
        "name": "COSMOS 2251 DEB",
        "group": "cosmos-2251-debris",
        "lat": 45.912920766365296,
        "lon": 43.11073473406067,
        "alt_km": 765.2421476651307,
        "timestamp": "2025-12-18T23:35:49.455561+00:00",
        "meta_object_name": "COSMOS 2251 DEB",
        "meta_object_id": "1993-036AG",
        "meta_epoch": "2025-12-18T12:17:52.846080",
        "meta_mean_motion": 14.43153563,
        "meta_eccentricity": 0.0030328,
        "meta_inclination": 74.175,
        "meta_ra_of_asc_node": 26.9509,
        "meta_arg_of_pericenter": 223.1639,
        "meta_mean_anomaly": 260.3001,
        "meta_ephemeris_type": 0,
        "meta_classification_type": "U",
        "meta_norad_cat_id": 33791,
        "meta_element_set_no": 999,
        "meta_rev_at_epoch": 88135,
        "meta_bstar": 0.00065881736,
        "meta_mean_motion_dot": 2.2e-05,
        "meta_mean_motion_ddot": 0,
        "tle_line1": "1 33791U 93036AG  25352.51241720  .00002200  00000+0  65882-3 0  9998",
        "tle_line2": "2 33791  74.1750  26.9509 0030328 223.1639 260.3001 14.43153563881354"
      },
      "geometry": {
        "type": "Point",
        "coordinates": [
          43.11073473406067,
          45.912920766365296
        ]
      }
    },
    {
      "type": "Feature",
      "properties": {
        "norad_id": 33792,
        "name": "COSMOS 2251 DEB",
        "group": "cosmos-2251-debris",
        "lat": 68.00712160655453,
        "lon": 21.019790109470865,
        "alt_km": 817.8278425569115,
        "timestamp": "2025-12-18T23:35:49.455572+00:00",
        "meta_object_name": "COSMOS 2251 DEB",
        "meta_object_id": "1993-036AH",
        "meta_epoch": "2025-12-18T09:41:42.333216",
        "meta_mean_motion": 13.45832538,
        "meta_eccentricity": 0.04273918,
        "meta_inclination": 73.901,
        "meta_ra_of_asc_node": 336.2987,
        "meta_arg_of_pericenter": 39.9054,
        "meta_mean_anomaly": 106.7074,
        "meta_ephemeris_type": 0,
        "meta_classification_type": "U",
        "meta_norad_cat_id": 33792,
        "meta_element_set_no": 999,
        "meta_rev_at_epoch": 82518,
        "meta_bstar": 0.00083881642,
        "meta_mean_motion_dot": 8.5e-06,
        "meta_mean_motion_ddot": 0,
        "tle_line1": "1 33792U 93036AH  25352.40396219  .00000850  00000+0  83882-3 0  9990",
        "tle_line2": "2 33792  73.9010 336.2987 0427391  39.9054 106.7074 13.45832538825181"
      },
      "geometry": {
        "type": "Point",
        "coordinates": [
          21.019790109470865,
          68.00712160655453
        ]
      }
    },
    {
      "type": "Feature",
      "properties": {
        "norad_id": 33793,
        "name": "COSMOS 2251 DEB",
        "group": "cosmos-2251-debris",
        "lat": -50.365114090546285,
        "lon": 118.27529624568722,
        "alt_km": 752.5024030880613,
        "timestamp": "2025-12-18T23:35:49.455583+00:00",
        "meta_object_name": "COSMOS 2251 DEB",
        "meta_object_id": "1993-036AJ",
        "meta_epoch": "2025-12-18T12:22:14.126592",
        "meta_mean_motion": 14.27741439,
        "meta_eccentricity": 0.00786878,
        "meta_inclination": 73.9804,
        "meta_ra_of_asc_node": 139.4203,
        "meta_arg_of_pericenter": 288.3802,
        "meta_mean_anomaly": 134.8219,
        "meta_ephemeris_type": 0,
        "meta_classification_type": "U",
        "meta_norad_cat_id": 33793,
        "meta_element_set_no": 999,
        "meta_rev_at_epoch": 87289,
        "meta_bstar": 0.00055760381,
        "meta_mean_motion_dot": 1.396e-05,
        "meta_mean_motion_ddot": 0,
        "tle_line1": "1 33793U 93036AJ  25352.51544128  .00001396  00000+0  55760-3 0  9997",
        "tle_line2": "2 33793  73.9804 139.4203 0078687 288.3802 134.8219 14.27741439872891"
      },
      "geometry": {
        "type": "Point",
        "coordinates": [
          118.27529624568722,
          -50.365114090546285
        ]
      }
    },
    {
      "type": "Feature",
      "properties": {
        "norad_id": 33795,
        "name": "COSMOS 2251 DEB",
        "group": "cosmos-2251-debris",
        "lat": -21.38914615537553,
        "lon": -109.62670854270726,
        "alt_km": 542.659548304784,
        "timestamp": "2025-12-18T23:35:49.455594+00:00",
        "meta_object_name": "COSMOS 2251 DEB",
        "meta_object_id": "1993-036AL",
        "meta_epoch": "2025-12-18T15:25:25.859424",
        "meta_mean_motion": 15.05711084,
        "meta_eccentricity": 0.00307591,
        "meta_inclination": 74.0324,
        "meta_ra_of_asc_node": 64.6322,
        "meta_arg_of_pericenter": 145.9216,
        "meta_mean_anomaly": 10.7709,
        "meta_ephemeris_type": 0,
        "meta_classification_type": "U",
        "meta_norad_cat_id": 33795,
        "meta_element_set_no": 999,
        "meta_rev_at_epoch": 90110,
        "meta_bstar": 0.0009304788,
        "meta_mean_motion_dot": 0.00013588,
        "meta_mean_motion_ddot": 0,
        "tle_line1": "1 33795U 93036AL  25352.64266041  .00013588  00000+0  93048-3 0  9995",
        "tle_line2": "2 33795  74.0324  64.6322 0030759 145.9216  10.7709 15.05711084901101"
      },
      "geometry": {
        "type": "Point",
        "coordinates": [
          -109.62670854270726,
          -21.38914615537553
        ]
      }
    },
    {
      "type": "Feature",
      "properties": {
        "norad_id": 33797,
        "name": "COSMOS 2251 DEB",
        "group": "cosmos-2251-debris",
        "lat": 26.82915946224079,
        "lon": 31.41229872466568,
        "alt_km": 691.7576067157779,
        "timestamp": "2025-12-18T23:35:49.455604+00:00",
        "meta_object_name": "COSMOS 2251 DEB",
        "meta_object_id": "1993-036AN",
        "meta_epoch": "2025-12-18T12:37:19.627104",
        "meta_mean_motion": 14.57867865,
        "meta_eccentricity": 0.00604836,
        "meta_inclination": 74.0467,
        "meta_ra_of_asc_node": 23.9624,
        "meta_arg_of_pericenter": 110.1025,
        "meta_mean_anomaly": 39.6573,
        "meta_ephemeris_type": 0,
        "meta_classification_type": "U",
        "meta_norad_cat_id": 33797,
        "meta_element_set_no": 999,
        "meta_rev_at_epoch": 89069,
        "meta_bstar": 0.00029313687,
        "meta_mean_motion_dot": 1.347e-05,
        "meta_mean_motion_ddot": 0,
        "tle_line1": "1 33797U 93036AN  25352.52592161  .00001347  00000+0  29314-3 0  9994",
        "tle_line2": "2 33797  74.0467  23.9624 0060483 110.1025  39.6573 14.57867865890698"
      },
      "geometry": {
        "type": "Point",
        "coordinates": [
          31.41229872466568,
          26.82915946224079
        ]
      }
    },
    {
      "type": "Feature",
      "properties": {
        "norad_id": 33798,
        "name": "COSMOS 2251 DEB",
        "group": "cosmos-2251-debris",
        "lat": -27.092360533387996,
        "lon": 115.85166182734191,
        "alt_km": 745.2247389053264,
        "timestamp": "2025-12-18T23:35:49.455624+00:00",
        "meta_object_name": "COSMOS 2251 DEB",
        "meta_object_id": "1993-036AP",
        "meta_epoch": "2025-12-18T12:25:46.458912",
        "meta_mean_motion": 14.44621646,
        "meta_eccentricity": 0.00924438,
        "meta_inclination": 74.0287,
        "meta_ra_of_asc_node": 125.1425,
        "meta_arg_of_pericenter": 245.2683,
        "meta_mean_anomaly": 186.5621,
        "meta_ephemeris_type": 0,
        "meta_classification_type": "U",
        "meta_norad_cat_id": 33798,
        "meta_element_set_no": 999,
        "meta_rev_at_epoch": 88677,
        "meta_bstar": 0.00014430629,
        "meta_mean_motion_dot": 4.97e-06,
        "meta_mean_motion_ddot": 0,
        "tle_line1": "1 33798U 93036AP  25352.51789883  .00000497  00000+0  14431-3 0  9992",
        "tle_line2": "2 33798  74.0287 125.1425 0092443 245.2683 186.5621 14.44621646886775"
      },
      "geometry": {
        "type": "Point",
        "coordinates": [
          115.85166182734191,
          -27.092360533387996
        ]
      }
    },
    {
      "type": "Feature",
      "properties": {
        "norad_id": 33799,
        "name": "COSMOS 2251 DEB",
        "group": "cosmos-2251-debris",
        "lat": -70.60690605721264,
        "lon": 15.066369398244728,
        "alt_km": 650.0582874745651,
        "timestamp": "2025-12-18T23:35:49.455646+00:00",
        "meta_object_name": "COSMOS 2251 DEB",
        "meta_object_id": "1993-036AQ",
        "meta_epoch": "2025-12-18T14:31:36.155712",
        "meta_mean_motion": 14.79685548,
        "meta_eccentricity": 0.00228868,
        "meta_inclination": 74.0325,
        "meta_ra_of_asc_node": 70.2372,
        "meta_arg_of_pericenter": 138.8452,
        "meta_mean_anomaly": 289.8067,
        "meta_ephemeris_type": 0,
        "meta_classification_type": "U",
        "meta_norad_cat_id": 33799,
        "meta_element_set_no": 999,
        "meta_rev_at_epoch": 88898,
        "meta_bstar": 0.00085660309,
        "meta_mean_motion_dot": 6.433e-05,
        "meta_mean_motion_ddot": 0,
        "tle_line1": "1 33799U 93036AQ  25352.60527958  .00006433  00000+0  85660-3 0  9994",
        "tle_line2": "2 33799  74.0325  70.2372 0022886 138.8452 289.8067 14.79685548888980"
      },
      "geometry": {
        "type": "Point",
        "coordinates": [
          15.066369398244728,
          -70.60690605721264
        ]
      }
    }
  ]
}